[{"OBJECT_NAME":"DMSP 5D-3 F18 (USA 210)","OBJECT_ID":"2009-057A","EPOCH":"2026-03-09T22:11:19.578624","MEAN_MOTION":14.14835918,"ECCENTRICITY":0.00111332,"INCLINATION":98.8964,"RA_OF_ASC_NODE":49.953,"ARG_OF_PERICENTER":167.567,"MEAN_ANOMALY":192.578,"EPHEMERIS_TYPE":0,"CLASSIFICATION_TYPE":"U","NORAD_CAT_ID":35951,"ELEMENT_SET_NO":999,"REV_AT_EPOCH":84555,"BSTAR":0.0001892164,"MEAN_MOTION_DOT":3.21e-6,"MEAN_MOTION_DDOT":0},{"OBJECT_NAME":"FENGYUN 1C DEB","OBJECT_ID":"1999-025JC","EPOCH":"2026-03-09T15:58:20.877024","MEAN_MOTION":14.20944756,"ECCENTRICITY":0.0163557,"INCLINATION":99.0361,"RA_OF_ASC_NODE":317.9376,"ARG_OF_PERICENTER":164.678,"MEAN_ANOMALY":252.7447,"EPHEMERIS_TYPE":0,"CLASSIFICATION_TYPE":"U","NORAD_CAT_ID":29930,"ELEMENT_SET_NO":999,"REV_AT_EPOCH":99125,"BSTAR":0.00020777,"MEAN_MOTION_DOT":4.68e-6,"MEAN_MOTION_DDOT":0}]
